[Satellite]
VERSION=1.1
NAME=THAICOM 5
NICKNAME=THAICOM 5
TLE1=1 29163U 06020B   15054.57931890 -.00000146  00000-0  10000-3 0  9992
TLE2=2 29163   0.0495 286.4617 0005345  21.0256 132.6643  1.00270759 32100
